[{"OBJECT_NAME":"SHIYAN-3 (SY-3)","OBJECT_ID":"2008-056A","EPOCH":"2026-03-09T16:28:21.411552","MEAN_MOTION":14.30765435,"ECCENTRICITY":0.00146908,"INCLINATION":98.6178,"RA_OF_ASC_NODE":96.1558,"ARG_OF_PERICENTER":69.2006,"MEAN_ANOMALY":291.0749,"EPHEMERIS_TYPE":0,"CLASSIFICATION_TYPE":"U","NORAD_CAT_ID":33433,"ELEMENT_SET_NO":999,"REV_AT_EPOCH":90457,"BSTAR":0.00010019007,"MEAN_MOTION_DOT":2.19e-6,"MEAN_MOTION_DDOT":0},{"OBJECT_NAME":"CZ-6A R\/B","OBJECT_ID":"2023-139B","EPOCH":"2026-03-09T16:22:29.263296","MEAN_MOTION":14.27666568,"ECCENTRICITY":0.00114968,"INCLINATION":85.9864,"RA_OF_ASC_NODE":294.489,"ARG_OF_PERICENTER":207.9649,"MEAN_ANOMALY":152.0926,"EPHEMERIS_TYPE":0,"CLASSIFICATION_TYPE":"U","NORAD_CAT_ID":57831,"ELEMENT_SET_NO":999,"REV_AT_EPOCH":12999,"BSTAR":0.00016877024,"MEAN_MOTION_DOT":4.35e-6,"MEAN_MOTION_DDOT":0}]
